[
    {
        "Altitude(m)": 604221.2110334535,
        "Argument of Periapsis(deg)": 0.0,
        "Eccentricity": 0.0,
        "Inclination(deg)": 60.0,
        "Latitude(deg)": 14.117284097686785,
        "Longitude(deg)": 8.3341224576937,
        "Mean Anomaly(deg)": 16.363599999999998,
        "RAAN(deg)": 100.0,
        "Satellite Name": "Test1 441",
        "Satellite Number": 441,
        "Semi-Major Axis(m)": 6980739.136638005,
        "Time(s)": 0
    },
    {
        "Altitude(m)": 604235.3522932295,
        "Argument of Periapsis(deg)": 0.00010418945913296404,
        "Eccentricity": 0.0,
        "Inclination(deg)": 60.0,
        "Latitude(deg)": 14.65168149356147,
        "Longitude(deg)": 8.622568213271663,
        "Mean Anomaly(deg)": 16.983706145461838,
        "RAAN(deg)": 99.99957995086025,
        "Satellite Name": "Test1 441",
        "Satellite Number": 441,
        "Semi-Major Axis(m)": 6980739.136638005,
        "Time(s)": 10
    }
]